#aV2012  4 21  0  0  0.00000000     288 DD+AD WGS84 FIT  NGA
## 1684 518400.00000000   300.00000000 56038 0.0000000000000
+   31     1  2  3  4  5  6  7  8  9 10 11 12 13 14 15 16 17
+         18 19 20 21 22 23 25 26 27 28 29 30 31 32  0  0  0
+          0  0  0  0  0  0  0  0  0  0  0  0  0  0  0  0  0
+          0  0  0  0  0  0  0  0  0  0  0  0  0  0  0  0  0
+          0  0  0  0  0  0  0  0  0  0  0  0  0  0  0  0  0
++         2  2  2  2  2  2  2  2  2  2  2  2  2  2  2  2  2
++         2  2  2  2  2  2  2  2  2  2  2  2  2  2  2  0  0
++         0  0  0  0  0  0  0  0  0  0  0  0  0  0  0  0  0
++         0  0  0  0  0  0  0  0  0  0  0  0  0  0  0  0  0
++         0  0  0  0  0  0  0  0  0  0  0  0  0  0  0  0  0
%c cc cc ccc ccc cccc cccc cccc cccc ccccc ccccc ccccc ccccc
%c cc cc ccc ccc cccc cccc cccc cccc ccccc ccccc ccccc ccccc
%f  0.0000000  0.000000000  0.00000000000  0.000000000000000
%f  0.0000000  0.000000000  0.00000000000  0.000000000000000
%i    0    0    0    0      0      0      0      0         0
%i    0    0    0    0      0      0      0      0         0
/*      NGA, ST. LOUIS,MO.                                  
/*   EPHEMERIS COMPUTED FROM  1 DAYS OF DATA
/*   EPOCHA SMOOTHER  
/* CCCCCCCCCCCCCCCCCCCCCCCCCCCCCCCCCCCCCCCCCCCCCCCCCCCCCCCCC
*  2012  4 21 12 15  0.00000000                                                 
P  1  -9418.062718  20178.463447 -14464.752851    250.433271                    
V  1 -15796.223381   9609.232757  23729.167730      0.039933                    
P  2  22436.880107 -12176.655189  -6175.022863    387.476883                    
V  2  -3966.612496   8060.169552 -30234.417740      0.014038                    
P  3 -12779.181006  10491.663413  20273.444641     38.804089                    
V  3  -8284.301115 -25692.889170   8171.374124      0.049343                    
P  4  21660.204411  -2223.804766 -15666.914020    160.076521                    
V  4 -14018.136861  13572.055750 -21331.347017      0.114758                    
P  5  19908.874262  -4902.493661  16926.568932   -307.277983                    
V  5  19214.730025   9860.562870 -19594.556955     -0.040486                    
P  6 -14932.761190   5467.330456  21382.433756     29.951954                    
V  6  -5603.658758 -26379.985460   3144.202012     -0.013631                    
P  7   4156.098916  15042.159630  21473.349717     74.510905                    
V  7 -22153.129080  15825.983171  -7047.800222      0.032281                    
P  8  15932.757772   5744.908146  20682.146679      1.057528                    
V  8 -21726.499284  14029.281015  12326.791135      0.000741                    
P  9  12786.576782 -20280.461576 -12016.667030    152.981714                    
V  9  12227.157827  -7669.607037  27190.459413      0.025441                    
P 10  24964.049145   9487.414466   1705.667203    -36.042365                    
V 10   1076.059528   3663.404635 -31081.833657     -0.010820                    
P 11 -10755.683538  23303.299009  -6541.944981   -253.704111                    
V 11  -8825.236189   3428.129272  28690.306084     -0.037388                    
P 12   4287.525295 -14251.063555 -22006.269230     64.720594                    
V 12  25563.381917  11120.352292  -2033.862256      0.021077                    
P 13   5584.033541  24970.883168   6794.012270    212.109373                    
V 13  -1642.329413   8900.604360 -30792.954840     -0.023056                    
P 14 -13893.353591 -11409.537590 -19423.163668    200.728770                    
V 14   -720.570642 -24960.262925  14904.211457      0.010639                    
P 15   4280.027547 -23692.161669  10968.207649    -91.367641                    
V 15   5155.187781  13405.383790  27132.849633      0.000793                    
P 16 -20284.979997   3234.496088  17022.711681   -232.157102                    
V 16 -18965.899919 -10044.427512 -20393.125598     -0.013808                    
P 17  13940.556290  13623.994381 -17971.038279    134.263210                    
V 17    821.385769  23118.239698  17755.296225     -0.026581                    
P 18 -16465.891940 -17121.942989  12600.687118    192.043185                    
V 18  15220.255933   3483.321488  24974.509166      0.018030                    
P 19  -8012.734361  21590.139731  12846.749538   -257.736399                    
V 19  -3348.917488 -16391.029040  25760.571324     -0.037279                    
P 20   1322.932436  16831.290936 -20677.726488     63.226956                    
V 20 -24776.258785  -7922.000274  -8029.445559      0.000199                    
P 21  -9759.140348 -12771.496063  21624.997241   -218.719174                    
V 21  21199.400532 -15833.520436   -370.569490     -0.024725                    
P 22 -24682.075011  -9958.256365   -658.689549    143.474933                    
V 22    501.424469  -3853.450515  30918.676535      0.003358                    
P 23     76.019747  25988.513625  -4381.357339    212.689143                    
V 23  -3760.833006  -5244.760410 -31327.007226     -0.036258                    
P 25 -11293.442447 -17071.261979 -16989.047943     33.199287                    
V 25  20535.073091   6471.476133 -20128.458061      0.003501                    
P 26  12432.062368 -11854.698753  19522.320327   -333.410725                    
V 26   2538.936488  26130.054679  14179.716259     -0.528862                    
P 27  17685.470202 -18759.958894  -4588.747056    379.792492                    
V 27   6779.490931  -2301.167470  31824.215430      0.040126                    
P 28  23477.411286  12571.880526   2144.013727    135.823879                    
V 28  -2696.721074    980.938970  31855.361122      0.041641                    
P 29  -5123.232401 -25792.215061   3971.721932    305.461598                    
V 29   2208.902245  -5172.603931 -31238.832049      0.037406                    
P 30 -25218.196180  -1784.381435   7796.687866   -141.804131                    
V 30  -9176.284971  -5575.901775 -29601.643647     -0.191842                    
P 31 -21655.809431   3687.564750 -14910.681260    233.639534                    
V 31  14449.343070 -12636.146236 -23568.003561      0.042482                    
P 32  -8041.385840  13040.717387 -21465.625647   -435.248978                    
V 32 -24553.521900 -13079.840373   1705.458378     -0.044491                    
EOF
